NORAD_CAT_ID,OBJECT_NAME,OBJECT_TYPE,EPOCH,MEAN_MOTION,ECCENTRICITY,INCLINATION,RA_OF_ASC_NODE,ARG_OF_PERICENTER,MEAN_ANOMALY,BSTAR,MEAN_MOTION_DOT,MEAN_MOTION_DDOT,TLE_LINE0,TLE_LINE1,TLE_LINE2,SEMIMAJOR_AXIS,PERIOD,APOGEE,PERIGEE,DECAYED
53867.0,STARLINK-4793,PAYLOAD,2022-12-15 20:12:30,15.73213416,0.0004319,53.2148,184.2617,359.7722,0.3295,1.3059e-06,-4.42e-06,0.0,0 STARLINK-4793,1 53867U 22114BB  22349.84202004 -.00000442  00000-0  13059-5 0  9993,2 53867  53.2148 184.2617 0004319 359.7722   0.3295 15.73213416 14945,6727.857,91.532,352.62800000000016,346.816,0.0
53867.0,STARLINK-4793,PAYLOAD,2022-12-15 23:15:27,15.73219364,0.0004133,53.2175,183.6336,5.5631,354.5434,9.2405e-06,6.73e-06,0.0,0 STARLINK-4793,1 53867U 22114BB  22349.96906936  .00000673  00000-0  92405-5 0  9998,2 53867  53.2175 183.6336 0004133   5.5631 354.5434 15.73219364 14414,6727.84,91.532,352.486,346.9240000000001,0.0
53867.0,STARLINK-4793,PAYLOAD,2022-12-16 12:58:46,15.73218943,0.0003983,53.2173,180.8044,10.8443,349.2663,9.2941e-06,6.81e-06,0.0,0 STARLINK-4793,1 53867U 22114BB  22350.54081543  .00000681  00000-0  92941-5 0  9996,2 53867  53.2173 180.8044 0003983  10.8443 349.2663 15.73218943 15057,6727.840999999999,91.532,352.386,347.026,0.0
53867.0,STARLINK-4793,PAYLOAD,2022-12-16 19:04:41,15.7321444,0.0004249,53.2166,179.545,6.1275,353.9797,4.448e-06,0.0,0.0,0 STARLINK-4793,1 53867U 22114BB  22350.79493025 -.00000000  00000-0  44480-5 0  9996,2 53867  53.2166 179.5450 0004249   6.1275 353.9797 15.73214440 14543,6727.854,91.532,352.57800000000015,346.86,0.0
53867.0,STARLINK-4793,PAYLOAD,2022-12-17 13:22:28,15.73206068,0.0004206,53.2161,175.7713,3.6409,356.4641,6.6511e-06,3.09e-06,0.0,0 STARLINK-4793,1 53867U 22114BB  22351.55727118  .00000309  00000-0  66511-5 0  9994,2 53867  53.2161 175.7713 0004206   3.6409 356.4641 15.73206068 15210,6727.878000000002,91.533,352.5730000000001,346.913,0.0
53867.0,STARLINK-4793,PAYLOAD,2022-12-17 19:28:23,15.73207599,0.0004229,53.217,174.5139,5.6801,354.4267,7.1109e-06,3.74e-06,0.0,0 STARLINK-4793,1 53867U 22114BB  22351.81137915  .00000374  00000-0  71109-5 0  9994,2 53867  53.2170 174.5139 0004229   5.6801 354.4267 15.73207599 14707,6727.874,91.533,352.584,346.89300000000014,0.0
53867.0,STARLINK-4793,PAYLOAD,2022-12-17 20:59:53,15.73195601,0.0004228,53.2163,174.2013,3.5063,356.5986,-8.599e-06,-1.832e-05,0.0,0 STARLINK-4793,1 53867U 22114BB  22351.87492026 -.00001832  00000-0 -85990-5 0  9992,2 53867  53.2163 174.2013 0004228   3.5063 356.5986 15.73195601 15266,6727.908,91.533,352.617,346.92800000000005,0.0
53867.0,STARLINK-4793,PAYLOAD,2022-12-18 12:14:40,15.73202918,0.0004107,53.2162,171.0556,0.2922,359.81,5.4675e-06,1.43e-06,0.0,0 STARLINK-4793,1 53867U 22114BB  22352.51018921  .00000143  00000-0  54675-5 0  9990,2 53867  53.2162 171.0556 0004107   0.2922 359.8100 15.73202918 15361,6727.887,91.533,352.515,346.98900000000015,0.0
53867.0,STARLINK-4793,PAYLOAD,2022-12-18 18:20:35,15.73200015,0.0004442,53.2171,169.7996,4.9821,355.1243,4.3009e-06,-2.2e-07,0.0,0 STARLINK-4793,1 53867U 22114BB  22352.76430439 -.00000022  00000-0  43009-5 0  9995,2 53867  53.2171 169.7996 0004442   4.9821 355.1243 15.73200015 15402,6727.895,91.533,352.749,346.772,0.0
53867.0,STARLINK-4793,PAYLOAD,2022-12-19 05:00:57,15.7320835,0.0004314,53.2164,167.5977,9.9432,350.1673,9.1693e-06,6.63e-06,0.0,0 STARLINK-4793,1 53867U 22114BB  22353.20899600  .00000663  00000-0  91693-5 0  9996,2 53867  53.2164 167.5977 0004314   9.9432 350.1673 15.73208350 15479,6727.871,91.533,352.639,346.834,0.0
53867.0,STARLINK-4793,PAYLOAD,2022-12-19 18:44:16,15.73201257,0.0004354,53.2167,164.7697,356.399,3.6998,-5.5717e-06,-1.408e-05,0.0,0 STARLINK-4793,1 53867U 22114BB  22353.78075219 -.00001408  00000-0 -55717-5 0  9998,2 53867  53.2167 164.7697 0004354 356.3990   3.6998 15.73201257 15561,6727.892,91.533,352.686,346.827,0.0
53867.0,STARLINK-4793,PAYLOAD,2022-12-19 20:15:45,15.73211538,0.0004288,53.2166,164.4548,2.2254,357.8784,3.5269e-06,-1.3e-06,0.0,0 STARLINK-4793,1 53867U 22114BB  22353.84427195 -.00000130  00000-0  35269-5 0  9999,2 53867  53.2166 164.4548 0004288   2.2254 357.8784 15.73211538 15029,6727.861999999999,91.533,352.612,346.842,0.0
53867.0,STARLINK-4793,PAYLOAD,2022-12-20 20:39:25,15.73194484,0.0005053999999999,53.2173,159.42700000000005,2.8413,357.2635,3.892799999999999e-06,-8e-07,0.0,0 STARLINK-4793,1 53867U 22114BB  22354.86071697 -.00000080  00000-0  38928-5 0  9993,2 53867  53.2173 159.4270 0005054   2.8413 357.2635 15.73194484 15184,6727.911,91.534,353.176,346.376,0.0
53867.0,STARLINK-4793,PAYLOAD,2022-12-21 04:16:53,15.73160812,0.0004256,53.2183,157.8547,5.8248,354.2821,-2.6634e-05,-4.356e-05,0.0,0 STARLINK-4793,1 53867U 22114BB  22355.17839290 -.00004356  00000-0 -26634-4 0  9990,2 53867  53.2183 157.8547 0004256   5.8248 354.2821 15.73160812 15234,6728.007,91.535,352.735,347.0080000000001,0.0
53867.0,STARLINK-4793,PAYLOAD,2022-12-21 14:57:14,15.73177688,0.000437,53.217,155.6548,359.6027,0.4989,-3.109e-05,-4.984e-05,0.0,0 STARLINK-4793,1 53867U 22114BB  22355.62308389 -.00004984  00000-0 -31090-4 0  9999,2 53867  53.2170 155.6548 0004370 359.6027   0.4989 15.73177688 15301,6727.959,91.534,352.764,346.884,0.0
53867.0,STARLINK-4793,PAYLOAD,2022-12-21 19:31:39,15.7319103,0.0003513,53.2171,154.7086,352.2341,7.8624,4.3108e-06,-1.9e-07,0.0,0 STARLINK-4793,1 53867U 22114BB  22355.81365030 -.00000019  00000-0  43108-5 0  9994,2 53867  53.2171 154.7086 0003513 352.2341   7.8624 15.73191030 15332,6727.920999999999,91.534,352.149,347.422,0.0
53867.0,STARLINK-4793,PAYLOAD,2022-12-22 16:52:20,15.73232561,0.0004188,53.2171,150.3083,352.4571,7.6385,-3.8273e-06,-1.163e-05,0.0,0 STARLINK-4793,1 53867U 22114BB  22356.70301204 -.00001163  00000-0 -38273-5 0  9995,2 53867  53.2171 150.3083 0004188 352.4571   7.6385 15.73232561 16021,6727.802,91.531,352.485,346.85,0.0
53867.0,STARLINK-4793,PAYLOAD,2022-12-22 21:26:46,15.73233623,0.0004376,53.2164,149.3649,351.412,8.6825,-8.2246e-06,-1.782e-05,0.0,0 STARLINK-4793,1 53867U 22114BB  22356.89359450 -.00001782  00000-0 -82246-5 0  9997,2 53867  53.2164 149.3649 0004376 351.4120   8.6825 15.73233623 15509,6727.799,91.531,352.608,346.72,0.0
53867.0,STARLINK-4793,PAYLOAD,2022-12-23 03:32:42,15.73206033,0.0004678,53.2171,148.108,349.1236,10.9683,2.0924e-05,2.314e-05,0.0,0 STARLINK-4793,1 53867U 22114BB  22357.14771503  .00002314  00000-0  20924-4 0  9997,2 53867  53.2171 148.1080 0004678 349.1236  10.9683 15.73206033 15547,6727.878000000002,91.533,352.89,346.596,0.0
53867.0,STARLINK-4793,PAYLOAD,2022-12-23 09:38:38,15.73192338,0.0004298999999999,53.2153,146.8487,349.2847,10.8081,3.9789e-05,4.963e-05,0.0,0 STARLINK-4793,1 53867U 22114BB  22357.40183251  .00004963  00000-0  39789-4 0  9994,2 53867  53.2153 146.8487 0004299 349.2847  10.8081 15.73192338 15588,6727.917,91.534,352.6740000000001,346.89,0.0
53867.0,STARLINK-4793,PAYLOAD,2022-12-23 15:44:33,15.73193533,0.0004536,53.2165,145.5943,350.064,10.0289,3.1425e-05,3.788e-05,0.0,0 STARLINK-4793,1 53867U 22114BB  22357.65594775  .00003788  00000-0  31425-4 0  9991,2 53867  53.2165 145.5943 0004536 350.0640  10.0289 15.73193533 16175,6727.9140000000025,91.534,352.83,346.727,0.0
53867.0,STARLINK-4793,PAYLOAD,2022-12-24 17:39:42,15.73217977,0.0004505,53.217,140.2483,346.1455,13.9441,-1.3501e-06,-8.16e-06,0.0,0 STARLINK-4793,1 53867U 22114BB  22358.73591037 -.00000816  00000-0 -13501-5 0  9996,2 53867  53.2170 140.2483 0004505 346.1455  13.9441 15.73217977 15796,6727.844,91.532,352.74,346.67800000000005,0.0
53867.0,STARLINK-4793,PAYLOAD,2022-12-25 11:57:29,15.73196461,0.0004167,53.2177,136.4785,346.2459,13.8447,-6.514700000000001e-06,-1.539e-05,0.0,0 STARLINK-4793,1 53867U 22114BB  22359.49826035 -.00001539  00000-0 -65147-5 0  9995,2 53867  53.2177 136.4785 0004167 346.2459  13.8447 15.73196461 15917,6727.905,91.533,352.574,346.967,0.0
53867.0,STARLINK-4793,PAYLOAD,2022-12-25 18:03:21,15.73267386,0.0002835,53.2176,135.2181,343.8764,16.2165,1.1941e-05,1.058e-05,0.0,0 STARLINK-4793,1 53867U 22114BB  22359.75232844  .00001058  00000-0  11941-4 0  9999,2 53867  53.2176 135.2181 0002835 343.8764  16.2165 15.73267386 15958,6727.703,91.529,351.475,347.661,0.0
53867.0,STARLINK-4793,PAYLOAD,2022-12-26 00:09:20,15.73194206,0.0004976,53.2171,133.9594,341.2137,18.8699,-4.9987e-06,-1.328e-05,0.0,0 STARLINK-4793,1 53867U 22114BB  22360.00648766 -.00001328  00000-0 -49987-5 0  9997,2 53867  53.2171 133.9594 0004976 341.2137  18.8699 15.73194206 15994,6727.9119999999975,91.534,353.125,346.42900000000014,0.0
53867.0,STARLINK-4793,PAYLOAD,2022-12-26 12:21:24,15.72986454,0.000489,53.2174,131.4469,348.956,11.1352,-0.00014933,-0.00021353,0.0,0 STARLINK-4793,1 53867U 22114BB  22360.51486945 -.00021353  00000-0 -14933-3 0  9993,2 53867  53.2174 131.4469 0004890 348.9560  11.1352 15.72986454 16626,6728.504,91.546,353.659,347.079,0.0
53867.0,STARLINK-4793,PAYLOAD,2022-12-26 16:55:36,15.73220066,0.0004785,53.2169,130.5032,340.4227,19.6608,9.5365e-06,7.14e-06,0.0,0 STARLINK-4793,1 53867U 22114BB  22360.70528166  .00000714  00000-0  95365-5 0  9992,2 53867  53.2169 130.5032 0004785 340.4227  19.6608 15.73220066 16107,6727.8380000000025,91.532,352.922,346.4840000000001,0.0
53867.0,STARLINK-4793,PAYLOAD,2022-12-27 02:04:29,15.732115,0.0004683,53.2172,128.6165,343.7282,16.3587,1.0328e-05,8.25e-06,0.0,0 STARLINK-4793,1 53867U 22114BB  22361.08645268  .00000825  00000-0  10328-4 0  9995,2 53867  53.2172 128.6165 0004683 343.7282  16.3587 15.73211500 16169,6727.861999999999,91.533,352.87800000000016,346.577,0.0
53867.0,STARLINK-4793,PAYLOAD,2022-12-27 11:13:18,15.73248559,0.0004876,53.2168,126.7279,333.4022,26.6747,6.1657e-05,8.059e-05,0.0,0 STARLINK-4793,1 53867U 22114BB  22361.46757720  .00008059  00000-0  61657-4 0  9992,2 53867  53.2168 126.7279 0004876 333.4022  26.6747 15.73248559 16224,6727.757,91.53,352.902,346.341,0.0
